ONEWEB-0035             
1 45143U 20008N   26021.40079801  .00000307  00000+0  84237-3 0  9993
2 45143  87.8766  65.5406 0001711  99.5901 260.5419 13.10376355288717
ONEWEB-0036             
1 45144U 20008P   26021.39081909 -.00000337  00000+0 -10014-2 0  9990
2 45144  87.8775  65.5045 0002062  92.8972 267.2391 13.10376460289149
ONEWEB-0038             
1 45145U 20008Q   26021.37389426  .00000648  00000+0  17911-2 0  9990
2 45145  87.8826  50.2859 0001117  28.6474 331.4715 13.11415825291085
ONEWEB-0039             
1 45146U 20008R   26021.37339324 -.00000587  00000+0 -17177-2 0  9991
2 45146  87.8776  65.5256 0002126  84.9030 275.2340 13.10372418288932
ONEWEB-0040             
1 45147U 20008S   26021.51946810 -.00000447  00000+0 -13172-2 0  9998
2 45147  87.8761  65.5176 0001744  96.2715 263.8611 13.10370215288655
ONEWEB-0043             
1 45149U 20008U   26021.52112796 -.00000482  00000+0 -14165-2 0  9991
2 45149  87.8764  65.4989 0002192  85.1671 274.9707 13.10369985288973
ONEWEB-0044             
1 45150U 20008V   26021.47300278  .00000148  00000+0  38740-3 0  9994
2 45150  87.8777  65.5015 0002025  92.1708 267.9651 13.10376758289263
ONEWEB-0045             
1 45151U 20008W   26021.52126285  .00000518  00000+0  14262-2 0  9998
2 45151  87.8830  50.2423 0001825  89.8606 270.2731 13.11416317291182
ONEWEB-0047             
1 45152U 20008X   26021.38998967 -.00004087  00000+0 -11746-1 0  9997
2 45152  87.8762  65.5245 0002066  91.0741 269.0623 13.10387418288978
ONEWEB-0048             
1 45153U 20008Y   26021.38501925 -.00000354  00000+0 -10516-2 0  9990
2 45153  87.8766  65.5537 0001736  98.1790 261.9535 13.10376042288583
ONEWEB-0049             
1 45154U 20008Z   26021.38819970 -.00000263  00000+0 -78915-3 0  9990
2 45154  87.8764  65.5415 0002274  99.7883 260.3501 13.10375647288806
ONEWEB-0051             
1 45155U 20008AA  26021.51957005  .00000544  00000+0  14982-2 0  9991
2 45155  87.8820  50.2581 0001852  94.8251 265.3089 13.11416851291861
ONEWEB-0052             
1 45156U 20008AB  26021.38251934 -.00000652  00000+0 -19033-2 0  9999
2 45156  87.8776  65.5070 0002333  98.6456 261.4935 13.10374435288715
ONEWEB-0053             
1 45157U 20008AC  26021.51782548 -.00001536  00000+0 -44357-2 0  9994
2 45157  87.8760  65.5233 0001849  87.2688 272.8651 13.10377097288709
ONEWEB-0054             
1 45158U 20008AD  26021.39996185  .00000255  00000+0  69439-3 0  9999
2 45158  87.8774  65.5191 0001875  98.7479 261.3860 13.10377165288804
ONEWEB-0056             
1 45159U 20008AE  26021.38085592 -.00000577  00000+0 -16895-2 0  9996
2 45159  87.8775  65.5228 0001959 102.0977 258.0370 13.10373339288956
ONEWEB-0057             
1 45160U 20008AF  26021.38847992 -.00000297  00000+0 -88567-3 0  9993
2 45160  87.8770  65.5329 0002030  94.0789 266.0570 13.10375488289125
