[{"OBJECT_NAME":"ONEWEB-0035","OBJECT_ID":"2020-008N","EPOCH":"2026-01-21T09:37:08.948064","MEAN_MOTION":13.10376355,"ECCENTRICITY":0.0001711,"INCLINATION":87.8766,"RA_OF_ASC_NODE":65.5406,"ARG_OF_PERICENTER":99.5901,"MEAN_ANOMALY":260.5419,"EPHEMERIS_TYPE":0,"CLASSIFICATION_TYPE":"U","NORAD_CAT_ID":45143,"ELEMENT_SET_NO":999,"REV_AT_EPOCH":28871,"BSTAR":0.00084237,"MEAN_MOTION_DOT":3.07e-6,"MEAN_MOTION_DDOT":0},{"OBJECT_NAME":"ONEWEB-0036","OBJECT_ID":"2020-008P","EPOCH":"2026-01-21T09:22:46.769376","MEAN_MOTION":13.1037646,"ECCENTRICITY":0.0002062,"INCLINATION":87.8775,"RA_OF_ASC_NODE":65.5045,"ARG_OF_PERICENTER":92.8972,"MEAN_ANOMALY":267.2391,"EPHEMERIS_TYPE":0,"CLASSIFICATION_TYPE":"U","NORAD_CAT_ID":45144,"ELEMENT_SET_NO":999,"REV_AT_EPOCH":28914,"BSTAR":-0.0010014,"MEAN_MOTION_DOT":-3.37e-6,"MEAN_MOTION_DDOT":0},{"OBJECT_NAME":"ONEWEB-0038","OBJECT_ID":"2020-008Q","EPOCH":"2026-01-21T08:58:24.464064","MEAN_MOTION":13.11415825,"ECCENTRICITY":0.0001117,"INCLINATION":87.8826,"RA_OF_ASC_NODE":50.2859,"ARG_OF_PERICENTER":28.6474,"MEAN_ANOMALY":331.4715,"EPHEMERIS_TYPE":0,"CLASSIFICATION_TYPE":"U","NORAD_CAT_ID":45145,"ELEMENT_SET_NO":999,"REV_AT_EPOCH":29108,"BSTAR":0.0017911,"MEAN_MOTION_DOT":6.48e-6,"MEAN_MOTION_DDOT":0},{"OBJECT_NAME":"ONEWEB-0039","OBJECT_ID":"2020-008R","EPOCH":"2026-01-21T08:57:41.175936","MEAN_MOTION":13.10372418,"ECCENTRICITY":0.0002126,"INCLINATION":87.8776,"RA_OF_ASC_NODE":65.5256,"ARG_OF_PERICENTER":84.903,"MEAN_ANOMALY":275.234,"EPHEMERIS_TYPE":0,"CLASSIFICATION_TYPE":"U","NORAD_CAT_ID":45146,"ELEMENT_SET_NO":999,"REV_AT_EPOCH":28893,"BSTAR":-0.0017177,"MEAN_MOTION_DOT":-5.87e-6,"MEAN_MOTION_DDOT":0},{"OBJECT_NAME":"ONEWEB-0040","OBJECT_ID":"2020-008S","EPOCH":"2026-01-21T12:28:02.043840","MEAN_MOTION":13.10370215,"ECCENTRICITY":0.0001744,"INCLINATION":87.8761,"RA_OF_ASC_NODE":65.5176,"ARG_OF_PERICENTER":96.2715,"MEAN_ANOMALY":263.8611,"EPHEMERIS_TYPE":0,"CLASSIFICATION_TYPE":"U","NORAD_CAT_ID":45147,"ELEMENT_SET_NO":999,"REV_AT_EPOCH":28865,"BSTAR":-0.0013172,"MEAN_MOTION_DOT":-4.47e-6,"MEAN_MOTION_DDOT":0},{"OBJECT_NAME":"ONEWEB-0043","OBJECT_ID":"2020-008U","EPOCH":"2026-01-21T12:30:25.455744","MEAN_MOTION":13.10369985,"ECCENTRICITY":0.0002192,"INCLINATION":87.8764,"RA_OF_ASC_NODE":65.4989,"ARG_OF_PERICENTER":85.1671,"MEAN_ANOMALY":274.9707,"EPHEMERIS_TYPE":0,"CLASSIFICATION_TYPE":"U","NORAD_CAT_ID":45149,"ELEMENT_SET_NO":999,"REV_AT_EPOCH":28897,"BSTAR":-0.0014165,"MEAN_MOTION_DOT":-4.82e-6,"MEAN_MOTION_DDOT":0},{"OBJECT_NAME":"ONEWEB-0044","OBJECT_ID":"2020-008V","EPOCH":"2026-01-21T11:21:07.440192","MEAN_MOTION":13.10376758,"ECCENTRICITY":0.0002025,"INCLINATION":87.8777,"RA_OF_ASC_NODE":65.5015,"ARG_OF_PERICENTER":92.1708,"MEAN_ANOMALY":267.9651,"EPHEMERIS_TYPE":0,"CLASSIFICATION_TYPE":"U","NORAD_CAT_ID":45150,"ELEMENT_SET_NO":999,"REV_AT_EPOCH":28926,"BSTAR":0.0003874,"MEAN_MOTION_DOT":1.48e-6,"MEAN_MOTION_DDOT":0},{"OBJECT_NAME":"ONEWEB-0045","OBJECT_ID":"2020-008W","EPOCH":"2026-01-21T12:30:37.110240","MEAN_MOTION":13.11416317,"ECCENTRICITY":0.0001825,"INCLINATION":87.883,"RA_OF_ASC_NODE":50.2423,"ARG_OF_PERICENTER":89.8606,"MEAN_ANOMALY":270.2731,"EPHEMERIS_TYPE":0,"CLASSIFICATION_TYPE":"U","NORAD_CAT_ID":45151,"ELEMENT_SET_NO":999,"REV_AT_EPOCH":29118,"BSTAR":0.0014262,"MEAN_MOTION_DOT":5.18e-6,"MEAN_MOTION_DDOT":0},{"OBJECT_NAME":"ONEWEB-0047","OBJECT_ID":"2020-008X","EPOCH":"2026-01-21T09:21:35.107488","MEAN_MOTION":13.10387418,"ECCENTRICITY":0.0002066,"INCLINATION":87.8762,"RA_OF_ASC_NODE":65.5245,"ARG_OF_PERICENTER":91.0741,"MEAN_ANOMALY":269.0623,"EPHEMERIS_TYPE":0,"CLASSIFICATION_TYPE":"U","NORAD_CAT_ID":45152,"ELEMENT_SET_NO":999,"REV_AT_EPOCH":28897,"BSTAR":-0.011746,"MEAN_MOTION_DOT":-4.087e-5,"MEAN_MOTION_DDOT":0},{"OBJECT_NAME":"ONEWEB-0048","OBJECT_ID":"2020-008Y","EPOCH":"2026-01-21T09:14:25.663200","MEAN_MOTION":13.10376042,"ECCENTRICITY":0.0001736,"INCLINATION":87.8766,"RA_OF_ASC_NODE":65.5537,"ARG_OF_PERICENTER":98.179,"MEAN_ANOMALY":261.9535,"EPHEMERIS_TYPE":0,"CLASSIFICATION_TYPE":"U","NORAD_CAT_ID":45153,"ELEMENT_SET_NO":999,"REV_AT_EPOCH":28858,"BSTAR":-0.0010516,"MEAN_MOTION_DOT":-3.54e-6,"MEAN_MOTION_DDOT":0},{"OBJECT_NAME":"ONEWEB-0049","OBJECT_ID":"2020-008Z","EPOCH":"2026-01-21T09:19:00.454080","MEAN_MOTION":13.10375647,"ECCENTRICITY":0.0002274,"INCLINATION":87.8764,"RA_OF_ASC_NODE":65.5415,"ARG_OF_PERICENTER":99.7883,"MEAN_ANOMALY":260.3501,"EPHEMERIS_TYPE":0,"CLASSIFICATION_TYPE":"U","NORAD_CAT_ID":45154,"ELEMENT_SET_NO":999,"REV_AT_EPOCH":28880,"BSTAR":-0.00078915,"MEAN_MOTION_DOT":-2.63e-6,"MEAN_MOTION_DDOT":0},{"OBJECT_NAME":"ONEWEB-0051","OBJECT_ID":"2020-008AA","EPOCH":"2026-01-21T12:28:10.852320","MEAN_MOTION":13.11416851,"ECCENTRICITY":0.0001852,"INCLINATION":87.882,"RA_OF_ASC_NODE":50.2581,"ARG_OF_PERICENTER":94.8251,"MEAN_ANOMALY":265.3089,"EPHEMERIS_TYPE":0,"CLASSIFICATION_TYPE":"U","NORAD_CAT_ID":45155,"ELEMENT_SET_NO":999,"REV_AT_EPOCH":29186,"BSTAR":0.0014982,"MEAN_MOTION_DOT":5.44e-6,"MEAN_MOTION_DDOT":0},{"OBJECT_NAME":"ONEWEB-0052","OBJECT_ID":"2020-008AB","EPOCH":"2026-01-21T09:10:49.670976","MEAN_MOTION":13.10374435,"ECCENTRICITY":0.0002333,"INCLINATION":87.8776,"RA_OF_ASC_NODE":65.507,"ARG_OF_PERICENTER":98.6456,"MEAN_ANOMALY":261.4935,"EPHEMERIS_TYPE":0,"CLASSIFICATION_TYPE":"U","NORAD_CAT_ID":45156,"ELEMENT_SET_NO":999,"REV_AT_EPOCH":28871,"BSTAR":-0.0019033,"MEAN_MOTION_DOT":-6.52e-6,"MEAN_MOTION_DDOT":0},{"OBJECT_NAME":"ONEWEB-0053","OBJECT_ID":"2020-008AC","EPOCH":"2026-01-21T12:25:40.121472","MEAN_MOTION":13.10377097,"ECCENTRICITY":0.0001849,"INCLINATION":87.876,"RA_OF_ASC_NODE":65.5233,"ARG_OF_PERICENTER":87.2688,"MEAN_ANOMALY":272.8651,"EPHEMERIS_TYPE":0,"CLASSIFICATION_TYPE":"U","NORAD_CAT_ID":45157,"ELEMENT_SET_NO":999,"REV_AT_EPOCH":28870,"BSTAR":-0.0044357,"MEAN_MOTION_DOT":-1.536e-5,"MEAN_MOTION_DDOT":0},{"OBJECT_NAME":"ONEWEB-0054","OBJECT_ID":"2020-008AD","EPOCH":"2026-01-21T09:35:56.703840","MEAN_MOTION":13.10377165,"ECCENTRICITY":0.0001875,"INCLINATION":87.8774,"RA_OF_ASC_NODE":65.5191,"ARG_OF_PERICENTER":98.7479,"MEAN_ANOMALY":261.386,"EPHEMERIS_TYPE":0,"CLASSIFICATION_TYPE":"U","NORAD_CAT_ID":45158,"ELEMENT_SET_NO":999,"REV_AT_EPOCH":28880,"BSTAR":0.00069439,"MEAN_MOTION_DOT":2.55e-6,"MEAN_MOTION_DDOT":0},{"OBJECT_NAME":"ONEWEB-0056","OBJECT_ID":"2020-008AE","EPOCH":"2026-01-21T09:08:25.951488","MEAN_MOTION":13.10373339,"ECCENTRICITY":0.0001959,"INCLINATION":87.8775,"RA_OF_ASC_NODE":65.5228,"ARG_OF_PERICENTER":102.0977,"MEAN_ANOMALY":258.037,"EPHEMERIS_TYPE":0,"CLASSIFICATION_TYPE":"U","NORAD_CAT_ID":45159,"ELEMENT_SET_NO":999,"REV_AT_EPOCH":28895,"BSTAR":-0.0016895,"MEAN_MOTION_DOT":-5.77e-6,"MEAN_MOTION_DDOT":0},{"OBJECT_NAME":"ONEWEB-0057","OBJECT_ID":"2020-008AF","EPOCH":"2026-01-21T09:19:24.665088","MEAN_MOTION":13.10375488,"ECCENTRICITY":0.000203,"INCLINATION":87.877,"RA_OF_ASC_NODE":65.5329,"ARG_OF_PERICENTER":94.0789,"MEAN_ANOMALY":266.057,"EPHEMERIS_TYPE":0,"CLASSIFICATION_TYPE":"U","NORAD_CAT_ID":45160,"ELEMENT_SET_NO":999,"REV_AT_EPOCH":28912,"BSTAR":-0.00088567,"MEAN_MOTION_DOT":-2.97e-6,"MEAN_MOTION_DDOT":0}]
